ONEWEB-0564             
1 55801U 23029F   25290.56140385  .00000000  00000+0 -32090-4 0  9993
2 55801  87.9211 322.8609 0001699  83.8563 276.2764 13.20770204129122
ONEWEB-0638             
1 55802U 23029G   25290.57733742  .00000180  00000+0  44975-3 0  9992
2 55802  87.9032 338.0994 0001368  93.6127 266.5160 13.14503522127522
ONEWEB-0639             
1 55803U 23029H   25290.56981000 -.00000004  00000+0 -42291-4 0  9991
2 55803  87.9260 353.2517 0002356 128.0594 232.0752 13.19723474126906
ONEWEB-0640             
1 55804U 23029J   25290.58685697  .00000256  00000+0  65598-3 0  9998
2 55804  87.9037 338.0823 0001256 115.7184 244.4076 13.14503318127541
ONEWEB-0641             
1 55805U 23029K   25290.71670647  .00000063  00000+0  12619-3 0  9995
2 55805  87.9265 353.1982 0001917 105.6187 254.5157 13.19724520126933
ONEWEB-0642             
1 55806U 23029L   25290.63614873 -.00000020  00000+0 -82961-4 0  9999
2 55806  87.9256 353.2430 0002462 119.2552 240.8827 13.19724179126916
ONEWEB-0643             
1 55807U 23029M   25290.55672014 -.00000053  00000+0 -17866-3 0  9999
2 55807  87.9036 338.0726 0002476 109.4146 250.7251 13.14503565127514
ONEWEB-0644             
1 55808U 23029N   25290.63140338 -.00000032  00000+0 -11107-3 0  9997
2 55808  87.9257 353.2528 0002187 112.0111 248.1255 13.19723564126916
